OBJECT_NAME,OBJECT_ID,EPOCH,MEAN_MOTION,ECCENTRICITY,INCLINATION,RA_OF_ASC_NODE,ARG_OF_PERICENTER,MEAN_ANOMALY,EPHEMERIS_TYPE,CLASSIFICATION_TYPE,NORAD_CAT_ID,ELEMENT_SET_NO,REV_AT_EPOCH,BSTAR,MEAN_MOTION_DOT,MEAN_MOTION_DDOT
SAUDISAT 1C (SO-50),2002-058C,2026-06-19T13:59:18.849984,14.83051246,.00751667,64.5513,121.5728,262.0349,97.2222,0,U,27607,999,26481,.10364076E-3,.73E-5,0
SAUDISAT 2,2004-025F,2026-06-19T13:41:27.662784,14.56685005,.00235186,98.5507,170.6140,290.5721,69.2953,0,U,28371,999,16609,.49334079E-4,.171E-5,0
SAUDISAT 3,2007-012B,2026-06-19T08:48:07.702848,14.71426689,.00137698,98.1456,120.7689,216.4508,143.5762,0,U,31118,999,2806,.39629798E-4,.195E-5,0
PISAT,2016-059B,2026-06-19T11:02:19.026816,14.68986663,.00285769,97.8178,170.8151,195.3619,164.6722,0,U,41784,999,52007,.11764091E-3,.646E-5,0
FLYING LAPTOP,2017-042G,2026-06-19T14:02:40.545600,15.01158625,.00196711,97.4700,326.0254,113.9180,246.4108,0,U,42831,999,48681,.21786579E-3,.2746E-4,0
SALSAT,2020-068K,2026-06-19T13:34:32.475360,15.29827493,.00079133,97.8853,173.7751,298.1437,61.9002,0,U,46495,999,31572,.21565431E-3,.615E-4,0
