SAUDISAT 1C (SO-50)     
1 27607U 02058C   26170.58285706  .00000730  00000+0  10364-3 0  9990
2 27607  64.5513 121.5728 0075166 262.0349  97.2222 14.83051246264814
SAUDISAT 2              
1 28371U 04025F   26170.57045906  .00000171  00000+0  49334-4 0  9999
2 28371  98.5507 170.6140 0023518 290.5721  69.2953 14.56685005166097
SAUDISAT 3              
1 31118U 07012B   26170.36675582  .00000195  00000+0  39630-4 0  9991
2 31118  98.1456 120.7689 0013769 216.4508 143.5762 14.71426689 28066
PISAT                   
1 41784U 16059B   26170.45994244  .00000646  00000+0  11764-3 0  9999
2 41784  97.8178 170.8151 0028576 195.3619 164.6722 14.68986663520070
FLYING LAPTOP           
1 42831U 17042G   26170.58519150  .00002746  00000+0  21787-3 0  9998
2 42831  97.4700 326.0254 0019671 113.9180 246.4108 15.01158625486812
SALSAT                  
1 46495U 20068K   26170.56565365  .00006150  00000+0  21565-3 0  9994
2 46495  97.8853 173.7751 0007913 298.1437  61.9002 15.29827493315721
